NORAD_CAT_ID,OBJECT_NAME,OBJECT_TYPE,EPOCH,MEAN_MOTION,ECCENTRICITY,INCLINATION,RA_OF_ASC_NODE,ARG_OF_PERICENTER,MEAN_ANOMALY,BSTAR,MEAN_MOTION_DOT,MEAN_MOTION_DDOT,TLE_LINE0,TLE_LINE1,TLE_LINE2,SEMIMAJOR_AXIS,PERIOD,APOGEE,PERIGEE,DECAYED
55285.0,STARLINK-5332,PAYLOAD,2023-01-24 16:00:00,15.96365186,0.0043044,69.9995,55.1711,162.0434,21.1562,-0.0019387999999999,-0.00894265,0.00025716,0 STARLINK-5332,1 55285U 23010S   23024.66667824 -.00894265  25716-3 -19388-2 0  9998,2 55285  69.9995  55.1711 0043044 162.0434  21.1562 15.96365186  1300,6662.65,90.205,313.194,255.836,0.0
55285.0,STARLINK-5332,PAYLOAD,2023-01-25 14:00:01,15.94728736,0.0033475,69.9993,52.4943,163.4577,243.4195,-0.0022461,-0.00910413,0.00026125,0 STARLINK-5332,1 55285U 23010S   23025.58334491 -.00910413  26125-3 -22461-2 0  9996,2 55285  69.9993  52.4943 0033475 163.4577 243.4195 15.94728736  1308,6667.206999999999,90.297,311.391,266.754,0.0
55285.0,STARLINK-5332,PAYLOAD,2023-01-25 16:00:01,15.94571567,0.0033095,69.9995,52.2514,163.4993,1.6946,-0.0022286999999999,-0.00894607,0.00025251,0 STARLINK-5332,1 55285U 23010S   23025.66668981 -.00894607  25251-3 -22287-2 0  9990,2 55285  69.9995  52.2514 0033095 163.4993   1.6946 15.94571567  1454,6667.645,90.306,311.577,267.444,0.0
55285.0,STARLINK-5332,PAYLOAD,2023-01-25 22:00:00,15.94119334,0.0030539,69.9997,51.5229,163.7394,355.8627,-0.0022806,-0.00886042,0.00024689,0 STARLINK-5332,1 55285U 23010S   23025.91667824 -.00886042  24689-3 -22806-2 0  9998,2 55285  69.9997  51.5229 0030539 163.7394 355.8627 15.94119334  1493,6668.906,90.332,311.138,270.405,0.0
55285.0,STARLINK-5332,PAYLOAD,2023-01-26 06:00:00,15.93522668,0.0027769,69.9997,50.5507,164.9639,106.646,-0.0024116,-0.00900052,0.0002525999999999,0 STARLINK-5332,1 55285U 23010S   23026.25001157 -.00900052  25260-3 -24116-2 0  9997,2 55285  69.9997  50.5507 0027769 164.9639 106.6460 15.93522668  1558,6670.571,90.366,310.96,273.91200000000003,0.0
55285.0,STARLINK-5332,PAYLOAD,2023-01-26 14:00:01,15.9293956,0.0024299,69.9994,49.5816,167.1531,215.7347,-0.0025675999999999,-0.00920739,0.00026188,0 STARLINK-5332,1 55285U 23010S   23026.58334491 -.00920739  26188-3 -25676-2 0  9999,2 55285  69.9994  49.5816 0024299 167.1531 215.7347 15.92939560  1308,6672.1990000000005,90.399,310.277,277.851,0.0
55285.0,STARLINK-5332,PAYLOAD,2023-01-26 18:00:00,15.92644351,0.0023475,69.9999,49.0975,167.9694,90.2918,-0.0026376,-0.00929403,0.00026566,0 STARLINK-5332,1 55285U 23010S   23026.75001157 -.00929403  26566-3 -26376-2 0  9993,2 55285  69.9999  49.0975 0023475 167.9694  90.2918 15.92644351  1634,6673.023,90.416,310.553,279.223,0.0
55285.0,STARLINK-5332,PAYLOAD,2023-01-27 02:00:01,15.92049273,0.0020139,70.0001,48.1284,170.5718,197.8989,-0.0027511999999999,-0.00933174,0.00026605,0 STARLINK-5332,1 55285U 23010S   23027.08334491 -.00933174  26605-3 -27512-2 0  9997,2 55285  70.0001  48.1284 0020139 170.5718 197.8989 15.92049273  1684,6674.686,90.449,309.993,283.10900000000004,0.0
55285.0,STARLINK-5332,PAYLOAD,2023-01-27 08:00:01,15.91603,0.0018419,70.0001,47.4026,171.9947,188.6632,-0.0028406,-0.00938462,0.00026764,0 STARLINK-5332,1 55285U 23010S   23027.33334491 -.00938462  26764-3 -28406-2 0  9999,2 55285  70.0001  47.4026 0018419 171.9947 188.6632 15.91603000  1728,6675.934,90.475,310.095,285.502,0.0
55285.0,STARLINK-5332,PAYLOAD,2023-01-27 14:00:01,15.91148387,0.0016079,69.9995,46.6768,176.3456,176.0996,-0.0028831,-0.00927027,0.00026045,0 STARLINK-5332,1 55285U 23010S   23027.58334491 -.00927027  26045-3 -28831-2 0  9995,2 55285  69.9995  46.6768 0016079 176.3456 176.0996 15.91148387  1305,6677.205,90.501,309.806,288.334,0.0
55285.0,STARLINK-5332,PAYLOAD,2023-01-27 16:00:00,15.90988396,0.0015579,69.9998,46.4354,177.0282,292.5921,-0.0028354,-0.00903731,0.00024806,0 STARLINK-5332,1 55285U 23010S   23027.66667824 -.00903731  24806-3 -28354-2 0  9992,2 55285  69.9998  46.4354 0015579 177.0282 292.5921 15.90988396  1770,6677.653,90.51,309.921,289.115,0.0
55285.0,STARLINK-5332,PAYLOAD,2023-01-27 22:00:00,15.90537471,0.0013539,70.0,45.7107,181.7901,279.0775,-0.0028937,-0.00898881,0.00024451,0 STARLINK-5332,1 55285U 23010S   23027.91667824 -.00898881  24451-3 -28937-2 0  9992,2 55285  70.0000  45.7107 0013539 181.7901 279.0775 15.90537471  1815,6678.915,90.535,309.822,291.737,0.0
55285.0,STARLINK-5332,PAYLOAD,2023-01-28 08:00:01,15.89810143,0.0011305,70.0,44.5036,191.8542,133.5212,-0.003152,-0.00941012,0.00026425,0 STARLINK-5332,1 55285U 23010S   23028.33334491 -.00941012  26425-3 -31520-2 0  9990,2 55285  70.0000  44.5036 0011305 191.8542 133.5212 15.89810143  1880,6680.951999999999,90.577,310.37,295.264,0.0
55285.0,STARLINK-5332,PAYLOAD,2023-01-28 14:00:01,15.89356987,0.0009816,69.9994,43.7793,201.3664,114.1823,-0.0031973,-0.00931773,0.00025832,0 STARLINK-5332,1 55285U 23010S   23028.58334491 -.00931773  25832-3 -31973-2 0  9993,2 55285  69.9994  43.7793 0009816 201.3664 114.1823 15.89356987  1925,6682.222,90.603,310.646,297.527,0.0
55285.0,STARLINK-5332,PAYLOAD,2023-01-28 22:00:00,15.88751162,0.0008411,70.0,42.816,218.115,203.7033,-0.0032415,-0.00915546,0.00024858,0 STARLINK-5332,1 55285U 23010S   23028.91667824 -.00915546  24858-3 -32415-2 0  9998,2 55285  70.0000  42.8160 0008411 218.1150 203.7033 15.88751162  1303,6683.92,90.637,311.407,300.163,0.0
55285.0,STARLINK-5332,PAYLOAD,2023-01-29 00:00:00,15.88595046,0.0008249,70.0001,42.5752,221.229,317.046,-0.0032144,-0.00900854,0.00024087,0 STARLINK-5332,1 55285U 23010S   23029.00001157 -.00900854  24087-3 -32144-2 0  9999,2 55285  70.0001  42.5752 0008249 221.2290 317.0460 15.88595046  1992,6684.358,90.646,311.737,300.709,0.0
55285.0,STARLINK-5332,PAYLOAD,2023-01-29 22:00:01,15.86962513,0.0009464,70.0,39.929,265.3459,111.0361,-0.0035833,-0.00847871,0.0,0 STARLINK-5332,1 55285U 23010S   23029.91668981 -.00847871  00000-0 -35833-2 0  9996,2 55285  70.0000  39.9290 0009464 265.3459 111.0361 15.86962513  2138,6688.941,90.739,317.137,304.476,0.0
55285.0,STARLINK-5332,PAYLOAD,2023-01-30 14:00:01,15.85771752,0.0007467,69.9994,38.0078,271.4056,310.9874,-0.0038192,-0.00850402,0.0,0 STARLINK-5332,1 55285U 23010S   23030.58334491 -.00850402  00000-0 -38192-2 0  9992,2 55285  69.9994  38.0078 0007467 271.4056 310.9874 15.85771752  1302,6692.29,90.808,319.152,309.157,0.0
55285.0,STARLINK-5332,PAYLOAD,2023-01-30 22:00:00,15.85154301,0.0007972,70.0001,37.0496,269.3926,54.9735,-0.0037879,-0.00821553,0.0,0 STARLINK-5332,1 55285U 23010S   23030.91667824 -.00821553  00000-0 -37879-2 0  9994,2 55285  70.0001  37.0496 0007972 269.3926  54.9735 15.85154301  1306,6694.027,90.843,321.229,310.556,0.0
55285.0,STARLINK-5332,PAYLOAD,2023-01-31 02:00:01,15.84866213,0.0006518,70.0003,36.5707,269.8247,285.2503,-0.0039323,-0.00838388,0.0,0 STARLINK-5332,1 55285U 23010S   23031.08334491 -.00838388  00000-0 -39323-2 0  9994,2 55285  70.0003  36.5707 0006518 269.8247 285.2503 15.84866213  2329,6694.838,90.859,321.067,312.34,0.0
55285.0,STARLINK-5332,PAYLOAD,2023-01-31 14:00:01,15.83974885,0.000619,69.9994,35.1336,275.5498,250.5886,-0.0041618,-0.00848905,0.0,0 STARLINK-5332,1 55285U 23010S   23031.58334491 -.00848905  00000-0 -41618-2 0  9995,2 55285  69.9994  35.1336 0006190 275.5498 250.5886 15.83974885  1306,6697.35,90.911,323.36,315.069,0.0
55285.0,STARLINK-5332,PAYLOAD,2023-01-31 22:00:00,15.83380148,0.0004392,69.9997,34.1775,279.4009,346.5483,-0.0042896,-0.00849352,0.0,0 STARLINK-5332,1 55285U 23010S   23031.91667824 -.00849352  00000-0 -42896-2 0  9997,2 55285  69.9997  34.1775 0004392 279.4009 346.5483 15.83380148  1300,6699.027,90.945,323.834,317.95,0.0
55285.0,STARLINK-5332,PAYLOAD,2023-02-01 14:00:01,15.82183345,0.0003563,69.9992,32.2669,270.7785,192.6476,-0.0045406,-0.00849254,0.0,0 STARLINK-5332,1 55285U 23010S   23032.58334491 -.00849254  00000-0 -45406-2 0  9993,2 55285  69.9992  32.2669 0003563 270.7785 192.6476 15.82183345  1301,6702.405,91.013,326.658,321.881,0.0
55285.0,STARLINK-5332,PAYLOAD,2023-02-01 22:00:00,15.81577964,0.0003457,70.0,31.3137,272.7003,288.3909,-0.0046082,-0.00838808,0.0,0 STARLINK-5332,1 55285U 23010S   23032.91667824 -.00838808  00000-0 -46082-2 0  9993,2 55285  70.0000  31.3137 0003457 272.7003 288.3909 15.81577964  2613,6704.115,91.048,328.297,323.662,0.0
55285.0,STARLINK-5332,PAYLOAD,2023-02-02 14:00:01,15.80382667,0.0003642,69.9993,29.4082,267.919,126.3449,-0.0048687,-0.00838604,0.0,0 STARLINK-5332,1 55285U 23010S   23033.58334491 -.00838604  00000-0 -48687-2 0  9995,2 55285  69.9993  29.4082 0003642 267.9190 126.3449 15.80382667  1305,6707.495,91.117,331.803,326.917,0.0
55285.0,STARLINK-5332,PAYLOAD,2023-02-03 00:00:00,15.79633626,0.0003504,70.0002,28.2194,272.3092,331.2316,-0.0050195,-0.00835602,0.0,0 STARLINK-5332,1 55285U 23010S   23034.00001157 -.00835602  00000-0 -50195-2 0  9995,2 55285  70.0002  28.2194 0003504 272.3092 331.2316 15.79633626  2783,6709.615,91.16,333.831,329.129,0.0
55285.0,STARLINK-5332,PAYLOAD,2023-02-03 14:00:01,15.78587029,0.0003593,69.9993,26.5562,265.6661,52.9802,-0.0052665,-0.00835984,0.0,0 STARLINK-5332,1 55285U 23010S   23034.58334491 -.00835984  00000-0 -52665-2 0  9995,2 55285  69.9993  26.5562 0003593 265.6661  52.9802 15.78587029  1302,6712.58,91.221,336.857,332.033,0.0
55285.0,STARLINK-5332,PAYLOAD,2023-02-03 22:00:00,15.77986646,0.0003565,69.9999,25.608,270.4293,141.5771,-0.0053848,-0.00832276,0.0,0 STARLINK-5332,1 55285U 23010S   23034.91667824 -.00832276  00000-0 -53848-2 0  9996,2 55285  69.9999  25.6080 0003565 270.4293 141.5771 15.77986646  2923,6714.283,91.256,338.541,333.754,0.0
55285.0,STARLINK-5332,PAYLOAD,2023-02-04 14:00:01,15.7679645,0.0003573,69.9993,23.7122,264.5019,332.0703,-0.0057401,-0.00840411,0.0,0 STARLINK-5332,1 55285U 23010S   23035.58334491 -.00840411  00000-0 -57401-2 0  9990,2 55285  69.9993  23.7122 0003573 264.5019 332.0703 15.76796450  1306,6717.661,91.324,341.926,337.126,0.0
